STARLINK-2523
1 18306C 21036AG  21326.15598730 -.00003632  00000-0 -24341-3 0  3262
2 18306  53.0559 293.0431 0001880  62.5644  53.6667 15.06394848    18
